start=new Date('2023-02-27T00:00:00.000Z').valueOf();
sats=[{"MEAN_ELEMENT_THEORY":"SGP4","TIME_SYSTEM":"UTC","NORAD_CAT_ID":"52459","OBJECT_ID":"2022-049J","FILE":"3843368","MEAN_MOTION_DDOT":"0.0000000000000","TLE_LINE2":"2 52459  53.2161 348.1187 0001216 106.0923 254.0203 15.08852695 45147","BSTAR":"0.00055922000000","TLE_LINE1":"1 52459U 22049J   23057.80444844  .00008626  00000-0  55922-3 0  9993","DECAY_DATE":null,"LAUNCH_DATE":"2022-05-06","APOAPSIS":"540.548","CLASSIFICATION_TYPE":"U","CENTER_NAME":"EARTH","OBJECT_TYPE":"PAYLOAD","SITE":"AFETR","ARG_OF_PERICENTER":"106.0923","ELEMENT_SET_NO":"999","RA_OF_ASC_NODE":"348.1187","INCLINATION":"53.2161","MEAN_ANOMALY":"254.0203","COUNTRY_CODE":"US","ECCENTRICITY":"0.00012160","OBJECT_NAME":"STARLINK-3856","MEAN_MOTION_DOT":"0.00008626","GP_ID":"227067942","MEAN_MOTION":"15.08852695","PERIOD":"95.437","PERIAPSIS":"538.865","EPHEMERIS_TYPE":"0","SEMIMAJOR_AXIS":"6917.842","RCS_SIZE":"LARGE","EPOCH":"2023-02-26T19:18:24.345216","REF_FRAME":"TEME","REV_AT_EPOCH":"4514"},{"INCLINATION":"53.2175","MEAN_ANOMALY":"297.1134","ARG_OF_PERICENTER":"79.8130","SITE":"AFETR","RA_OF_ASC_NODE":"347.2070","ELEMENT_SET_NO":"999","MEAN_MOTION":"15.10593529","GP_ID":"227068161","OBJECT_NAME":"STARLINK-3865","MEAN_MOTION_DOT":"-0.00431387","COUNTRY_CODE":"US","ECCENTRICITY":"0.00014240","EPHEMERIS_TYPE":"0","PERIAPSIS":"533.406","PERIOD":"95.327","REV_AT_EPOCH":"130","REF_FRAME":"TEME","EPOCH":"2023-02-27T00:00:00.999648","RCS_SIZE":"LARGE","SEMIMAJOR_AXIS":"6912.526","OBJECT_ID":"2022-049K","NORAD_CAT_ID":"52460","TIME_SYSTEM":"UTC","MEAN_ELEMENT_THEORY":"SGP4","BSTAR":"-0.02740300000000","TLE_LINE2":"2 52460  53.2175 347.2070 0001424  79.8130 297.1134 15.10593529  1305","FILE":"3843368","MEAN_MOTION_DDOT":"0.0000000000000","LAUNCH_DATE":"2022-05-06","DECAY_DATE":null,"TLE_LINE1":"1 52460U 22049K   23058.00001157 -.00431387  00000-0 -27403-1 0  9991","OBJECT_TYPE":"PAYLOAD","CENTER_NAME":"EARTH","CLASSIFICATION_TYPE":"U","APOAPSIS":"535.375"},{"EPOCH":"2023-02-26T17:39:02.624256","SEMIMAJOR_AXIS":"6917.808","RCS_SIZE":"LARGE","REF_FRAME":"TEME","REV_AT_EPOCH":"4527","PERIOD":"95.436","PERIAPSIS":"538.638","EPHEMERIS_TYPE":"0","ECCENTRICITY":"0.00014960","COUNTRY_CODE":"US","MEAN_MOTION_DOT":"0.00014454","OBJECT_NAME":"STARLINK-3900","GP_ID":"227066440","MEAN_MOTION":"15.08863834","RA_OF_ASC_NODE":"338.4373","SITE":"AFETR","ARG_OF_PERICENTER":"99.2577","ELEMENT_SET_NO":"999","INCLINATION":"53.2174","MEAN_ANOMALY":"260.8585","CLASSIFICATION_TYPE":"U","APOAPSIS":"540.707","CENTER_NAME":"EARTH","OBJECT_TYPE":"PAYLOAD","TLE_LINE1":"1 52461U 22049L   23057.73544704  .00014454  00000-0  92375-3 0  9993","DECAY_DATE":null,"LAUNCH_DATE":"2022-05-06","FILE":"3843368","MEAN_MOTION_DDOT":"0.0000000000000","TLE_LINE2":"2 52461  53.2174 338.4373 0001496  99.2577 260.8585 15.08863834 45270","BSTAR":"0.00092375000000","MEAN_ELEMENT_THEORY":"SGP4","TIME_SYSTEM":"UTC","NORAD_CAT_ID":"52461","OBJECT_ID":"2022-049L"},{"MEAN_ANOMALY":"265.4102","INCLINATION":"53.2169","SITE":"AFETR","ARG_OF_PERICENTER":"94.6999","RA_OF_ASC_NODE":"351.1300","ELEMENT_SET_NO":"999","MEAN_MOTION_DOT":"0.00011492","OBJECT_NAME":"STARLINK-3903","COUNTRY_CODE":"US","ECCENTRICITY":"0.00009570","MEAN_MOTION":"15.08853108","GP_ID":"227008287","PERIOD":"95.437","EPHEMERIS_TYPE":"0","PERIAPSIS":"539.043","REF_FRAME":"TEME","SEMIMAJOR_AXIS":"6917.840","RCS_SIZE":"LARGE","EPOCH":"2023-02-26T03:13:57.194400","REV_AT_EPOCH":"4504","NORAD_CAT_ID":"52462","TIME_SYSTEM":"UTC","MEAN_ELEMENT_THEORY":"SGP4","OBJECT_ID":"2022-049M","BSTAR":"0.00073871000000","TLE_LINE2":"2 52462  53.2169 351.1300 0000957  94.6999 265.4102 15.08853108 45049","FILE":"3841853","MEAN_MOTION_DDOT":"0.0000000000000","TLE_LINE1":"1 52462U 22049M   23057.13468975  .00011492  00000-0  73871-3 0  9992","LAUNCH_DATE":"2022-05-06","DECAY_DATE":null,"APOAPSIS":"540.367","CLASSIFICATION_TYPE":"U","OBJECT_TYPE":"PAYLOAD","CENTER_NAME":"EARTH"},{"CLASSIFICATION_TYPE":"U","APOAPSIS":"540.649","OBJECT_TYPE":"PAYLOAD","CENTER_NAME":"EARTH","TLE_LINE1":"1 52463U 22049N   23057.79800889  .00008268  00000-0  53670-3 0  9991","LAUNCH_DATE":"2022-05-06","DECAY_DATE":null,"BSTAR":"0.00053670000000","TLE_LINE2":"2 52463  53.2182 338.1500 0001376  95.7508 264.3641 15.08855810 45280","MEAN_MOTION_DDOT":"0.0000000000000","FILE":"3843368","NORAD_CAT_ID":"52463","TIME_SYSTEM":"UTC","MEAN_ELEMENT_THEORY":"SGP4","OBJECT_ID":"2022-049N","REF_FRAME":"TEME","EPOCH":"2023-02-26T19:09:07.968096","SEMIMAJOR_AXIS":"6917.832","RCS_SIZE":"LARGE","REV_AT_EPOCH":"4528","PERIOD":"95.437","EPHEMERIS_TYPE":"0","PERIAPSIS":"538.745","MEAN_MOTION_DOT":"0.00008268","OBJECT_NAME":"STARLINK-3885","COUNTRY_CODE":"US","ECCENTRICITY":"0.00013760","MEAN_MOTION":"15.08855810","GP_ID":"227067442","MEAN_ANOMALY":"264.3641","INCLINATION":"53.2182","RA_OF_ASC_NODE":"338.1500","SITE":"AFETR","ARG_OF_PERICENTER":"95.7508","ELEMENT_SET_NO":"999"},{"TLE_LINE1":"1 52464U 22049P   23057.80076909  .00015009  00000-0  95845-3 0  9993","LAUNCH_DATE":"2022-05-06","DECAY_DATE":null,"CLASSIFICATION_TYPE":"U","APOAPSIS":"540.462","OBJECT_TYPE":"PAYLOAD","CENTER_NAME":"EARTH","NORAD_CAT_ID":"52464","MEAN_ELEMENT_THEORY":"SGP4","TIME_SYSTEM":"UTC","OBJECT_ID":"2022-049P","BSTAR":"0.00095845000000","TLE_LINE2":"2 52464  53.2156 348.1409 0001145  76.8503 283.2617 15.08864615 45141","MEAN_MOTION_DDOT":"0.0000000000000","FILE":"3843368","PERIOD":"95.436","EPHEMERIS_TYPE":"0","PERIAPSIS":"538.878","REF_FRAME":"TEME","EPOCH":"2023-02-26T19:13:06.449376","RCS_SIZE":"LARGE","SEMIMAJOR_AXIS":"6917.805","REV_AT_EPOCH":"4514","MEAN_ANOMALY":"283.2617","INCLINATION":"53.2156","RA_OF_ASC_NODE":"348.1409","SITE":"AFETR","ARG_OF_PERICENTER":"76.8503","ELEMENT_SET_NO":"999","OBJECT_NAME":"STARLINK-3904","MEAN_MOTION_DOT":"0.00015009","ECCENTRICITY":"0.00011450","COUNTRY_CODE":"US","MEAN_MOTION":"15.08864615","GP_ID":"227067662"},{"REV_AT_EPOCH":"4545","REF_FRAME":"TEME","EPOCH":"2023-02-26T20:39:12.787488","SEMIMAJOR_AXIS":"6917.809","RCS_SIZE":"LARGE","EPHEMERIS_TYPE":"0","PERIAPSIS":"538.842","PERIOD":"95.436","MEAN_MOTION":"15.08863283","GP_ID":"227035425","MEAN_MOTION_DOT":"0.00024921","OBJECT_NAME":"STARLINK-3863","ECCENTRICITY":"0.00012030","COUNTRY_CODE":"US","MEAN_ANOMALY":"274.2288","INCLINATION":"53.2163","ARG_OF_PERICENTER":"85.8841","SITE":"AFETR","RA_OF_ASC_NODE":"337.8745","ELEMENT_SET_NO":"999","OBJECT_TYPE":"PAYLOAD","CENTER_NAME":"EARTH","CLASSIFICATION_TYPE":"U","APOAPSIS":"540.506","LAUNCH_DATE":"2022-05-06","DECAY_DATE":null,"TLE_LINE1":"1 52465U 22049Q   23057.86056467  .00024921  00000-0  15774-2 0  9992","TLE_LINE2":"2 52465  53.2163 337.8745 0001203  85.8841 274.2288 15.08863283 45456","BSTAR":"0.00157740000000","MEAN_MOTION_DDOT":"0.0000000000000","FILE":"3842906","OBJECT_ID":"2022-049Q","NORAD_CAT_ID":"52465","TIME_SYSTEM":"UTC","MEAN_ELEMENT_THEORY":"SGP4"},{"OBJECT_ID":"2022-049R","NORAD_CAT_ID":"52466","TIME_SYSTEM":"UTC","MEAN_ELEMENT_THEORY":"SGP4","TLE_LINE2":"2 52466  53.2173 348.1923 0000961  87.0396 273.0706 15.08842373 45145","BSTAR":"0.00032742000000","MEAN_MOTION_DDOT":"0.0000000000000","FILE":"3843368","LAUNCH_DATE":"2022-05-06","DECAY_DATE":null,"TLE_LINE1":"1 52466U 22049R   23057.78973490  .00004927  00000-0  32742-3 0  9997","OBJECT_TYPE":"PAYLOAD","CENTER_NAME":"EARTH","CLASSIFICATION_TYPE":"U","APOAPSIS":"540.403","INCLINATION":"53.2173","MEAN_ANOMALY":"273.0706","SITE":"AFETR","RA_OF_ASC_NODE":"348.1923","ELEMENT_SET_NO":"999","ARG_OF_PERICENTER":"87.0396","MEAN_MOTION":"15.08842373","GP_ID":"227067191","MEAN_MOTION_DOT":"0.00004927","OBJECT_NAME":"STARLINK-3840","COUNTRY_CODE":"US","ECCENTRICITY":"0.00009610","EPHEMERIS_TYPE":"0","PERIAPSIS":"539.073","PERIOD":"95.437","REV_AT_EPOCH":"4514","REF_FRAME":"TEME","EPOCH":"2023-02-26T18:57:13.095360","RCS_SIZE":"LARGE","SEMIMAJOR_AXIS":"6917.873"},{"ELEMENT_SET_NO":"999","SITE":"AFETR","RA_OF_ASC_NODE":"350.8515","ARG_OF_PERICENTER":"89.9591","MEAN_ANOMALY":"270.1527","INCLINATION":"53.2159","ECCENTRICITY":"0.00010930","COUNTRY_CODE":"US","MEAN_MOTION_DOT":"0.00010827","OBJECT_NAME":"STARLINK-3873","GP_ID":"227007537","MEAN_MOTION":"15.08851454","PERIOD":"95.437","PERIAPSIS":"538.954","EPHEMERIS_TYPE":"0","EPOCH":"2023-02-26T04:44:02.521824","RCS_SIZE":"LARGE","SEMIMAJOR_AXIS":"6917.845","REF_FRAME":"TEME","REV_AT_EPOCH":"4505","TIME_SYSTEM":"UTC","MEAN_ELEMENT_THEORY":"SGP4","NORAD_CAT_ID":"52467","OBJECT_ID":"2022-049S","MEAN_MOTION_DDOT":"0.0000000000000","FILE":"3841853","TLE_LINE2":"2 52467  53.2159 350.8515 0001093  89.9591 270.1527 15.08851454 45051","BSTAR":"0.00069710000000","TLE_LINE1":"1 52467U 22049S   23057.19725141  .00010827  00000-0  69710-3 0  9992","DECAY_DATE":null,"LAUNCH_DATE":"2022-05-06","CLASSIFICATION_TYPE":"U","APOAPSIS":"540.466","CENTER_NAME":"EARTH","OBJECT_TYPE":"PAYLOAD"},{"DECAY_DATE":null,"LAUNCH_DATE":"2022-05-06","TLE_LINE1":"1 52468U 22049T   23057.77868719  .00008170  00000-0  53049-3 0  9992","CENTER_NAME":"EARTH","OBJECT_TYPE":"PAYLOAD","APOAPSIS":"540.679","CLASSIFICATION_TYPE":"U","OBJECT_ID":"2022-049T","TIME_SYSTEM":"UTC","MEAN_ELEMENT_THEORY":"SGP4","NORAD_CAT_ID":"52468","FILE":"3843368","MEAN_MOTION_DDOT":"0.0000000000000","BSTAR":"0.00053049000000","TLE_LINE2":"2 52468  53.2163 348.2438 0001456  93.8354 266.2805 15.08864016 45149","PERIAPSIS":"538.665","EPHEMERIS_TYPE":"0","PERIOD":"95.436","REV_AT_EPOCH":"4514","RCS_SIZE":"LARGE","SEMIMAJOR_AXIS":"6917.807","EPOCH":"2023-02-26T18:41:18.573216","REF_FRAME":"TEME","SITE":"AFETR","RA_OF_ASC_NODE":"348.2438","ELEMENT_SET_NO":"999","ARG_OF_PERICENTER":"93.8354","MEAN_ANOMALY":"266.2805","INCLINATION":"53.2163","GP_ID":"227068162","MEAN_MOTION":"15.08864016","COUNTRY_CODE":"US","ECCENTRICITY":"0.00014560","OBJECT_NAME":"STARLINK-3864","MEAN_MOTION_DOT":"0.00008170"}];
